{
"type": "FeatureCollection",
"name": "Karamchedu",
"crs": { "type": "name", "properties": { "name": "urn:ogc:def:crs:OGC:1.3:CRS84" } },
"features": [
{ "type": "Feature", "properties": { "OBJECTID": 118, "state": "Andhra Pradesh", "district": "Bapatla", "mandal": "Karamchedu", "Sate_UUID": "1b62503c-0355-4222-8712-80e1e1d29445", "Dist_UUID": "690ed836-9e02-4170-8f82-9c0b27ed41df", "Mand_UUID": "a62369dd-656d-4785-adbc-c545dedb133f", "LGD_Code_d": 750.0, "LGD_Code_m": 5109.0, "UUID": "a62369dd-656d-4785-adbc-c545dedb133f", "Area_Sqkm": 160.24861301300001 }, "geometry": { "type": "MultiPolygon", "coordinates": [ [ [ [ 80.324926200383914, 15.94762921591564 ], [ 80.325094593940435, 15.946540835691053 ], [ 80.325643933121057, 15.946928943515957 ], [ 80.325822341527896, 15.947029537183425 ], [ 80.326277511797798, 15.947286181212348 ], [ 80.326453065756425, 15.947192791114446 ], [ 80.327157843759551, 15.946747266073544 ], [ 80.32721613781456, 15.946710406460113 ], [ 80.327216348255945, 15.946710276058468 ], [ 80.327293479510502, 15.946663355729356 ], [ 80.327651228921127, 15.946445700908441 ], [ 80.327918389622027, 15.946399469460005 ], [ 80.328002032867573, 15.94640760112992 ], [ 80.328551617563164, 15.946461030752005 ], [ 80.329224892314983, 15.946484512949951 ], [ 80.329444365565053, 15.946492167079896 ], [ 80.330752210046512, 15.946400819342387 ], [ 80.334541740009342, 15.946136089508968 ], [ 80.33623615177703, 15.94595837447946 ], [ 80.338418012281522, 15.945831701371958 ], [ 80.339296101334071, 15.945780716107208 ], [ 80.3395359109536, 15.945766060755147 ], [ 80.340539725228211, 15.945704715300394 ], [ 80.341092686878028, 15.945539562900535 ], [ 80.341470700712307, 15.945426660212263 ], [ 80.342467457107489, 15.94503596323915 ], [ 80.342760468820643, 15.944921111719964 ], [ 80.344912676878607, 15.943758541023897 ], [ 80.346017331234918, 15.943243410255207 ], [ 80.347102462208909, 15.94273737522974 ], [ 80.347965212424697, 15.942181549239137 ], [ 80.348545009844372, 15.941675886533005 ], [ 80.349156181912349, 15.94101879598071 ], [ 80.34981258897983, 15.940487884808078 ], [ 80.350339260748342, 15.940184478730771 ], [ 80.350722201968097, 15.940031604774788 ], [ 80.352491155842245, 15.939325413037409 ], [ 80.356566688202179, 15.937733291058578 ], [ 80.357155043570458, 15.936178375831446 ], [ 80.358139867760769, 15.933375047820277 ], [ 80.359690475235311, 15.928459320241473 ], [ 80.36065336675955, 15.925074201013615 ], [ 80.362166179325754, 15.924657849080518 ], [ 80.365155299177786, 15.923835153769403 ], [ 80.369283780921819, 15.922391597094588 ], [ 80.368933762982806, 15.921129999350057 ], [ 80.368895366428092, 15.920991604479013 ], [ 80.368895330455189, 15.920991474976631 ], [ 80.369010310577437, 15.918520689278409 ], [ 80.368888601727633, 15.917778967125685 ], [ 80.368830544194338, 15.917425152249052 ], [ 80.368576558561358, 15.915877294901293 ], [ 80.367806968217053, 15.912975868841329 ], [ 80.367449472415274, 15.912295065864669 ], [ 80.367173267232545, 15.911769063191741 ], [ 80.367143095877225, 15.911731587542761 ], [ 80.366479681292333, 15.910907529758731 ], [ 80.366052502421098, 15.910044936924351 ], [ 80.364817207148462, 15.907431829015763 ], [ 80.364657295098141, 15.907015495968437 ], [ 80.364298415239716, 15.906081132738109 ], [ 80.364184480129722, 15.90473028177712 ], [ 80.363986560031776, 15.903322696185512 ], [ 80.363986415240902, 15.903322507327914 ], [ 80.362201462427606, 15.90099599716757 ], [ 80.362023813947928, 15.900650000996791 ], [ 80.361744020470212, 15.900105057702319 ], [ 80.360302326291389, 15.898956763743683 ], [ 80.360302276828691, 15.898956729569477 ], [ 80.359356069527053, 15.898468269994737 ], [ 80.358892068813986, 15.898235967915639 ], [ 80.35803639266544, 15.897807568664405 ], [ 80.357136397027148, 15.897446957611066 ], [ 80.355244065161514, 15.896688720308248 ], [ 80.354609755336014, 15.896329446546758 ], [ 80.353519833673431, 15.895712106928215 ], [ 80.351635147843865, 15.89422741616238 ], [ 80.351534261896745, 15.894145441159253 ], [ 80.351483009533297, 15.894103797152582 ], [ 80.350300092575253, 15.893011511172347 ], [ 80.350300055703087, 15.893011473400804 ], [ 80.352483159969893, 15.889649203248155 ], [ 80.354186063136353, 15.886718206580042 ], [ 80.355392763565249, 15.88476399955897 ], [ 80.355758651840347, 15.884307911980613 ], [ 80.356430650454229, 15.88347024475604 ], [ 80.357104193204009, 15.882565209317022 ], [ 80.357606541908467, 15.881890197974315 ], [ 80.358698019398162, 15.880194046917779 ], [ 80.358936265995908, 15.879577819760641 ], [ 80.359186714595239, 15.878930029996923 ], [ 80.35953845023937, 15.877320826295147 ], [ 80.360080539085686, 15.875510263487911 ], [ 80.360714530551206, 15.873844080539925 ], [ 80.360746057184826, 15.873744175753131 ], [ 80.360821129891292, 15.873506271797055 ], [ 80.361167368879023, 15.872446181546081 ], [ 80.361264477673558, 15.872148860281754 ], [ 80.361264474076279, 15.872148775745472 ], [ 80.361234006843972, 15.871285527305304 ], [ 80.360402968522237, 15.868988264896529 ], [ 80.359861383296277, 15.867957193070026 ], [ 80.359709004866716, 15.867667094261037 ], [ 80.358588320994272, 15.865138461470849 ], [ 80.358588310202435, 15.865138430893921 ], [ 80.358550518891377, 15.86486883482894 ], [ 80.35844324236183, 15.864103554935184 ], [ 80.358390105019396, 15.863874467033099 ], [ 80.358207051614215, 15.863691963113638 ], [ 80.358062125866468, 15.863547469939817 ], [ 80.357726575321237, 15.863214230652261 ], [ 80.357200391884646, 15.862794018828936 ], [ 80.356574855844997, 15.862294449029662 ], [ 80.356275027270726, 15.862139030891626 ], [ 80.355689445411656, 15.861835489915961 ], [ 80.354321557693765, 15.861328726439638 ], [ 80.351348245225381, 15.860227160355237 ], [ 80.351068431063311, 15.860043129386952 ], [ 80.350256783923498, 15.859509312504827 ], [ 80.348977354421436, 15.858956912931262 ], [ 80.348128580569607, 15.858590447291363 ], [ 80.34617553457332, 15.857700828930149 ], [ 80.345865179434554, 15.857487605068968 ], [ 80.344962347334501, 15.856867321969389 ], [ 80.344975087130649, 15.856693955161973 ], [ 80.345023565085512, 15.85603417833471 ], [ 80.344425045579442, 15.856005509746524 ], [ 80.343840434088804, 15.855977503958684 ], [ 80.34307830721815, 15.8550627414524 ], [ 80.342117214338032, 15.853909146889691 ], [ 80.341032593279635, 15.85287582226141 ], [ 80.340247827775102, 15.852128160985899 ], [ 80.339567605760465, 15.851418638159657 ], [ 80.338264783992656, 15.850059681609082 ], [ 80.338104397100324, 15.850193257013245 ], [ 80.336279879512858, 15.851698048526146 ], [ 80.332695840140957, 15.8536383619209 ], [ 80.332403140492602, 15.853796818868148 ], [ 80.330731639853354, 15.855061689245588 ], [ 80.329067523547451, 15.856182972965883 ], [ 80.327981216260184, 15.856985512671315 ], [ 80.327861931083305, 15.857073639936573 ], [ 80.327274916604154, 15.856423034395561 ], [ 80.324986137500275, 15.853886199788349 ], [ 80.320988858748876, 15.849950110908935 ], [ 80.319714979862511, 15.848676675388333 ], [ 80.319035497989887, 15.84799742104417 ], [ 80.318166136857769, 15.847201477865951 ], [ 80.316305219210562, 15.845497682572045 ], [ 80.311041589797583, 15.840529155795934 ], [ 80.309610282788356, 15.839005384091251 ], [ 80.308829107377449, 15.83817372973391 ], [ 80.307088486644375, 15.836685594564585 ], [ 80.305671021100807, 15.835473713141425 ], [ 80.30358907977228, 15.833566115284043 ], [ 80.302222357575772, 15.83231381383149 ], [ 80.301972791211426, 15.832078863248967 ], [ 80.300666794836786, 15.830849345221168 ], [ 80.299428605545756, 15.829496308008231 ], [ 80.298774305589802, 15.828781307411475 ], [ 80.297683293948921, 15.827847056596454 ], [ 80.296158245206925, 15.826541106986554 ], [ 80.294716392747375, 15.825162272720775 ], [ 80.295365060249367, 15.824705637455281 ], [ 80.295585944535787, 15.824550143774161 ], [ 80.295693035805016, 15.82447242076563 ], [ 80.296823494408784, 15.823762850275386 ], [ 80.297249792843729, 15.823495267792453 ], [ 80.297250031164083, 15.823495096021929 ], [ 80.300646557392781, 15.821109219814673 ], [ 80.30399097060689, 15.818361684843921 ], [ 80.304355799480618, 15.818061958792441 ], [ 80.307286744887449, 15.815762739458933 ], [ 80.307776868207952, 15.815482386602923 ], [ 80.309698809352653, 15.814383013065651 ], [ 80.310903064524894, 15.813673523514353 ], [ 80.311797451990856, 15.8131465846472 ], [ 80.312576362009565, 15.812542619746182 ], [ 80.31260798756864, 15.812513740716611 ], [ 80.312735940411358, 15.812396858528246 ], [ 80.312736191322244, 15.812396630100466 ], [ 80.311920088941008, 15.812114054120343 ], [ 80.311037271253099, 15.811716274086848 ], [ 80.310782906106283, 15.81160165729068 ], [ 80.310720601074934, 15.811583757184678 ], [ 80.309370979487198, 15.811195939840786 ], [ 80.308234329051118, 15.810297411896101 ], [ 80.306484153021302, 15.809010545000717 ], [ 80.306228728473116, 15.808822734181888 ], [ 80.306228491951401, 15.808822627162556 ], [ 80.3048319860074, 15.808224244353426 ], [ 80.304433127686764, 15.808128231832484 ], [ 80.303145661842905, 15.807818306569629 ], [ 80.302138160347852, 15.807547412782924 ], [ 80.301238354466534, 15.807305472669498 ], [ 80.301088349347879, 15.807167439325895 ], [ 80.300750342754156, 15.806856406997611 ], [ 80.300266209817778, 15.806142855208634 ], [ 80.300170086680225, 15.806001181409442 ], [ 80.298248496271128, 15.802580226895998 ], [ 80.296873280877264, 15.800329786790257 ], [ 80.296197162469127, 15.799223347279678 ], [ 80.295722227798649, 15.798416273192515 ], [ 80.295014261698896, 15.797213186239617 ], [ 80.29412363429833, 15.795785990031447 ], [ 80.29362648997062, 15.79498932469761 ], [ 80.292025079793632, 15.792360090146076 ], [ 80.291929891051666, 15.792110643391538 ], [ 80.291811288460224, 15.791799836793075 ], [ 80.291785143369736, 15.791831105321307 ], [ 80.291300357525529, 15.792411231892913 ], [ 80.290603560106263, 15.793246478142521 ], [ 80.290406808227658, 15.79348232265113 ], [ 80.29040668771853, 15.793482467441947 ], [ 80.287742481230566, 15.796686009951429 ], [ 80.284101059716193, 15.801105072541134 ], [ 80.283918275208293, 15.801326883129207 ], [ 80.281422233849071, 15.803834475380768 ], [ 80.280071372995508, 15.805299405343305 ], [ 80.278941975591749, 15.806314948576073 ], [ 80.277361628436438, 15.807577956457578 ], [ 80.277063853913774, 15.807718371205908 ], [ 80.276453528107879, 15.808006168649797 ], [ 80.275171379955282, 15.808547512857501 ], [ 80.27476502848333, 15.808786577838362 ], [ 80.274019022859648, 15.809225462285326 ], [ 80.26998209569723, 15.811634125514558 ], [ 80.267272532801201, 15.812645078607545 ], [ 80.266227293954501, 15.813221535945161 ], [ 80.265628395833858, 15.813575258191634 ], [ 80.265432947972215, 15.813690693370859 ], [ 80.265432882321704, 15.813690732041721 ], [ 80.265223941931424, 15.813421846441088 ], [ 80.265181179168167, 15.813366814227152 ], [ 80.26518104067253, 15.81336663616139 ], [ 80.265036029489238, 15.812861943823691 ], [ 80.264724020497226, 15.812814778878987 ], [ 80.264563272077396, 15.812790478297984 ], [ 80.262762259170984, 15.813799472667597 ], [ 80.260962820078134, 15.814698238033316 ], [ 80.260594876852167, 15.814882010896156 ], [ 80.258731884468943, 15.815506686284607 ], [ 80.256061765837899, 15.816401964978752 ], [ 80.255381672426324, 15.816660401356501 ], [ 80.254482100368705, 15.817002237263466 ], [ 80.253902303848292, 15.817358388578839 ], [ 80.252612267741995, 15.818512957107316 ], [ 80.251944204561426, 15.819301774957012 ], [ 80.251634626436896, 15.819667307999907 ], [ 80.251212816518319, 15.8203377543839 ], [ 80.250726134903289, 15.821111307141166 ], [ 80.250413469406169, 15.821932940352951 ], [ 80.250377329250398, 15.822284922411313 ], [ 80.250359850926429, 15.822455146987465 ], [ 80.250389236274316, 15.822966005976468 ], [ 80.250435696150532, 15.823773721280247 ], [ 80.250294170739437, 15.824113468062137 ], [ 80.250259764476596, 15.824196060899567 ], [ 80.249611588903747, 15.825115641074035 ], [ 80.247473888709067, 15.827827416302284 ], [ 80.247473754710086, 15.827827493643952 ], [ 80.246840283951997, 15.828196391949973 ], [ 80.246738082296702, 15.828141526110585 ], [ 80.246557540698007, 15.828044608871664 ], [ 80.246137918829959, 15.827781612931119 ], [ 80.245901490661311, 15.827389135300393 ], [ 80.245329582094598, 15.827454141895203 ], [ 80.245085107691636, 15.827388966227886 ], [ 80.244741889526665, 15.826973554985614 ], [ 80.243773371843702, 15.827803968278545 ], [ 80.242589863131741, 15.828657468067775 ], [ 80.241628165907173, 15.829357295302998 ], [ 80.241040693673142, 15.829903905940569 ], [ 80.239659012153766, 15.830997629936746 ], [ 80.238781292722535, 15.831543927610198 ], [ 80.236253861426633, 15.833085710936871 ], [ 80.23597969770492, 15.833252953361182 ], [ 80.235357401922613, 15.833550261135713 ], [ 80.232133466386415, 15.835090491333176 ], [ 80.229019919933421, 15.836438361041587 ], [ 80.228683896344819, 15.836529510028925 ], [ 80.227424904835573, 15.836871016784073 ], [ 80.227424790621626, 15.836871047361001 ], [ 80.227649478140961, 15.837478690489206 ], [ 80.227875160310475, 15.83808901899306 ], [ 80.22924027361978, 15.840322291940254 ], [ 80.228431427868145, 15.841119084977834 ], [ 80.227415813589005, 15.84211955287509 ], [ 80.227208065699756, 15.842299033273832 ], [ 80.22536246260762, 15.843893481798773 ], [ 80.224476848028189, 15.84450301260398 ], [ 80.224280856076689, 15.844687209047493 ], [ 80.223301679628889, 15.84560744302911 ], [ 80.222834368511371, 15.845828817446034 ], [ 80.222424282154975, 15.846023081799842 ], [ 80.221004684318757, 15.846535910304056 ], [ 80.220829172628271, 15.846599317904236 ], [ 80.219814268813536, 15.846737504132534 ], [ 80.219596221888196, 15.846813896144454 ], [ 80.219288037712829, 15.846921866051332 ], [ 80.218852190276436, 15.847341069734625 ], [ 80.218593172936664, 15.847590193632584 ], [ 80.218260707066008, 15.847441915212244 ], [ 80.218180876945951, 15.847406311052453 ], [ 80.218041512605794, 15.847356598328417 ], [ 80.21792187669331, 15.847313922799344 ], [ 80.217328549872718, 15.847491483145461 ], [ 80.215685757391839, 15.847983098441262 ], [ 80.213442160227544, 15.848613220124037 ], [ 80.21264478802658, 15.848788680553241 ], [ 80.212289607979073, 15.848866836135642 ], [ 80.211547536889384, 15.849009197916189 ], [ 80.210489056424876, 15.849212256740316 ], [ 80.209954030853908, 15.849361144900968 ], [ 80.20930587416683, 15.849541514729196 ], [ 80.207935628426583, 15.850158034165986 ], [ 80.207001296672559, 15.850578414162555 ], [ 80.206000290081363, 15.851078416535756 ], [ 80.203955663423187, 15.852099688449925 ], [ 80.201666085721342, 15.853689472191434 ], [ 80.20060513481917, 15.854472466930872 ], [ 80.198177958146289, 15.856490294691412 ], [ 80.196674202652389, 15.857961607142499 ], [ 80.196407603128421, 15.858222449206721 ], [ 80.195819447409633, 15.860100289396883 ], [ 80.195809491914588, 15.860374954040935 ], [ 80.195780743286718, 15.861168076945262 ], [ 80.196367532935369, 15.863782923243377 ], [ 80.196855860309768, 15.864748084656412 ], [ 80.196878521426697, 15.864792882585505 ], [ 80.196878643734465, 15.864793113711301 ], [ 80.196985400455901, 15.865172228315714 ], [ 80.197043342876043, 15.865457847601647 ], [ 80.197099129621165, 15.865732836900975 ], [ 80.196961791453589, 15.866013598948484 ], [ 80.196877967444323, 15.866184958469091 ], [ 80.195649327154797, 15.867811431852147 ], [ 80.195397150957831, 15.867938386447406 ], [ 80.195397118582207, 15.867938340581986 ], [ 80.195222457650345, 15.867688230127783 ], [ 80.195107117799296, 15.867523066036711 ], [ 80.194741185457417, 15.86726918472516 ], [ 80.194451105534142, 15.867377927149676 ], [ 80.194451073158575, 15.867377875888337 ], [ 80.194290766305869, 15.867125273412682 ], [ 80.194195511014073, 15.86700678593445 ], [ 80.194130827275899, 15.86692632628899 ], [ 80.193779879437955, 15.867071618060777 ], [ 80.193566193325239, 15.867215654378981 ], [ 80.193550233956216, 15.868297502827545 ], [ 80.193550199781953, 15.868299791602169 ], [ 80.193550197983313, 15.868299908514018 ], [ 80.193130699322353, 15.868506033127005 ], [ 80.19296277970858, 15.868758760608387 ], [ 80.1929087052726, 15.869465857063688 ], [ 80.192893665909992, 15.86966250282228 ], [ 80.192934343145453, 15.869843429330842 ], [ 80.193145640658827, 15.870783237956118 ], [ 80.193325075192149, 15.871833474335403 ], [ 80.193343174947643, 15.871939412673782 ], [ 80.19331891663478, 15.872071333325437 ], [ 80.193213412668911, 15.872645093596248 ], [ 80.19261807586355, 15.87302477207561 ], [ 80.19212233357888, 15.873024888987459 ], [ 80.191801504036221, 15.873024962731904 ], [ 80.191549672279621, 15.872879989320097 ], [ 80.191191796963892, 15.871813182032781 ], [ 80.191008569090229, 15.871254041141128 ], [ 80.190795040358864, 15.871181553985593 ], [ 80.190443998991441, 15.871181547690298 ], [ 80.190443975609071, 15.871181741943872 ], [ 80.190430978606855, 15.871286818731733 ], [ 80.190412753845578, 15.871434151065273 ], [ 80.190490774529678, 15.872369470274862 ], [ 80.19051987838975, 15.872718365859953 ], [ 80.190321517624, 15.872989083379537 ], [ 80.190177144059987, 15.873069614071483 ], [ 80.189901323787126, 15.873223465590513 ], [ 80.189260051410315, 15.873371765594584 ], [ 80.189098168945407, 15.873332772789297 ], [ 80.18888653778356, 15.873281796517745 ], [ 80.188386831287289, 15.873149042194598 ], [ 80.188138992520521, 15.873083200129656 ], [ 80.187940506749044, 15.872883558729313 ], [ 80.187721336570462, 15.872612197295098 ], [ 80.187620045029121, 15.872486785037154 ], [ 80.187463902037507, 15.872346251578278 ], [ 80.1872386515426, 15.872143519208066 ], [ 80.187084388134053, 15.872045970645104 ], [ 80.186895372223717, 15.871926445349231 ], [ 80.186547293223043, 15.871792248513486 ], [ 80.186475385230892, 15.871764524213461 ], [ 80.18606384916734, 15.871691952521644 ], [ 80.185836952913121, 15.871711252872046 ], [ 80.185628568303855, 15.871728976710983 ], [ 80.184972522763758, 15.871926964258023 ], [ 80.184880835981858, 15.872090046418577 ], [ 80.184977132688573, 15.872628086517011 ], [ 80.185010321269374, 15.87281352852159 ], [ 80.185079370316771, 15.873150790476643 ], [ 80.185261879632094, 15.874042249750062 ], [ 80.185910502167985, 15.874636832024237 ], [ 80.186086541760574, 15.875009114479099 ], [ 80.186214919083284, 15.875280606314959 ], [ 80.186769819671497, 15.876443468391415 ], [ 80.187123023009178, 15.877183641911586 ], [ 80.187182416935059, 15.877344357955792 ], [ 80.187237022870363, 15.877492119265924 ], [ 80.187237180251714, 15.877492074299823 ], [ 80.187908829029311, 15.877301525045368 ], [ 80.188036860113073, 15.877268991171036 ], [ 80.189312519657108, 15.87694483323753 ], [ 80.189461344865208, 15.876971933408072 ], [ 80.189571701572845, 15.876992030557801 ], [ 80.189677795493935, 15.877077590258637 ], [ 80.189808191794668, 15.87718274888482 ], [ 80.190258650516341, 15.877658520824127 ], [ 80.191326242911828, 15.878707884861058 ], [ 80.191975383457248, 15.879345934966977 ], [ 80.192379227619313, 15.879750174830747 ], [ 80.192379368812851, 15.879750320520941 ], [ 80.19278382721194, 15.879678697613826 ], [ 80.192965475876065, 15.879691210780777 ], [ 80.193119616976787, 15.879701829076225 ], [ 80.19347067273344, 15.879701829975545 ], [ 80.193638233517731, 15.879725548695149 ], [ 80.193638255101462, 15.879725570278879 ], [ 80.193851865671149, 15.879940496556742 ], [ 80.194156287982366, 15.88027215663476 ], [ 80.194309854416304, 15.880439462910942 ], [ 80.194475675911747, 15.880500436945681 ], [ 80.194568877151994, 15.880534707410845 ], [ 80.194851254381945, 15.880463252677032 ], [ 80.195232673948794, 15.880296575926309 ], [ 80.195522735885618, 15.880368175450997 ], [ 80.195805224631442, 15.88060482575213 ], [ 80.197949267744548, 15.882222330196441 ], [ 80.198280018608045, 15.882471508953017 ], [ 80.198421777842839, 15.882578305244635 ], [ 80.200397797920118, 15.884147760710619 ], [ 80.200970139060701, 15.884694564702443 ], [ 80.201779161079457, 15.885383455282295 ], [ 80.202937869187394, 15.886962366220303 ], [ 80.203350239821759, 15.88752427432587 ], [ 80.203485701104285, 15.887761117081936 ], [ 80.203731180949319, 15.888190314031817 ], [ 80.203900761610896, 15.88832663956282 ], [ 80.203967699050111, 15.888380450497436 ], [ 80.20415855407407, 15.888427978768277 ], [ 80.20488167824692, 15.888157049008669 ], [ 80.205303177000076, 15.887999127158025 ], [ 80.205608421291686, 15.887903986979438 ], [ 80.205834128642152, 15.887839802365022 ], [ 80.20594443858505, 15.887808433112752 ], [ 80.205944627442648, 15.887808379153398 ], [ 80.206058797275716, 15.887903716283517 ], [ 80.206115863756168, 15.888044229057982 ], [ 80.206203629493984, 15.888260332548384 ], [ 80.206622522011855, 15.889535448901881 ], [ 80.206844284036549, 15.890210491720893 ], [ 80.206948063102686, 15.890612880779884 ], [ 80.207034566192306, 15.89094828563492 ], [ 80.207312400946591, 15.891585944535734 ], [ 80.207438595614747, 15.891875574798007 ], [ 80.207606613254654, 15.892089130509021 ], [ 80.207606697790936, 15.892089234830394 ], [ 80.20798815063273, 15.892089308574782 ], [ 80.208331093605125, 15.892017874525322 ], [ 80.208659232837363, 15.891949525150494 ], [ 80.209461031501462, 15.891612934988984 ], [ 80.209461238345511, 15.891612845956104 ], [ 80.210322977723308, 15.891232263658083 ], [ 80.210323030783286, 15.891232241175032 ], [ 80.212773102396795, 15.89030376220893 ], [ 80.213436355103738, 15.890101012751586 ], [ 80.213628004229065, 15.890042427316189 ], [ 80.213940841496708, 15.889947298828815 ], [ 80.214558579514915, 15.889684653623931 ], [ 80.21513109242602, 15.889495358024419 ], [ 80.215455295325683, 15.889404084031298 ], [ 80.215726898677474, 15.889327616476351 ], [ 80.216321420697057, 15.889018536576259 ], [ 80.217099756948301, 15.888590741669418 ], [ 80.217524199182492, 15.88831730370066 ], [ 80.217580953598201, 15.888280740863536 ], [ 80.218077012444212, 15.888066891973551 ], [ 80.218725277049941, 15.887756839906274 ], [ 80.219012685087421, 15.887540021454868 ], [ 80.219481293027286, 15.887186504253805 ], [ 80.219914451490808, 15.886864198923718 ], [ 80.220312819680942, 15.886567778780034 ], [ 80.221044446044402, 15.886067426570548 ], [ 80.222435107294416, 15.885116348540691 ], [ 80.223289512700887, 15.884640146725417 ], [ 80.224460577493687, 15.883993784185861 ], [ 80.225747322980624, 15.883283560787731 ], [ 80.226457196542469, 15.882879265166025 ], [ 80.228557693582729, 15.881607023945037 ], [ 80.229364888179077, 15.881118108414 ], [ 80.232188827752282, 15.879513961600082 ], [ 80.232189075065833, 15.879513821305864 ], [ 80.232310399005769, 15.880827453823997 ], [ 80.232615221515346, 15.883016778701403 ], [ 80.233087614701731, 15.88523148604429 ], [ 80.233155046768047, 15.885689708613199 ], [ 80.233285372921671, 15.886575315098753 ], [ 80.235155424982906, 15.886326015832992 ], [ 80.237070402676977, 15.886025990307246 ], [ 80.237070615816322, 15.886025956133039 ], [ 80.237396593078358, 15.887000534347237 ], [ 80.237520165323417, 15.88736997494442 ], [ 80.237868747944447, 15.888552247987889 ], [ 80.238290430159282, 15.889982430844555 ], [ 80.23840455412693, 15.89027102778573 ], [ 80.238404580207259, 15.89027109433556 ], [ 80.240877027852605, 15.889596760182371 ], [ 80.240877114187526, 15.889596736800002 ], [ 80.242716413931419, 15.889104746486908 ], [ 80.243731179250574, 15.888890127777245 ], [ 80.243731210726878, 15.88889012238127 ], [ 80.243734960000438, 15.888889715887728 ], [ 80.244295657618579, 15.888829057515068 ], [ 80.244553023803064, 15.889700702025834 ], [ 80.244684596417073, 15.89014630800574 ], [ 80.245233349239754, 15.892276981797295 ], [ 80.245309747546855, 15.892500515486461 ], [ 80.245897168519548, 15.892392589646363 ], [ 80.246195045564946, 15.892958240730252 ], [ 80.24653302338038, 15.894001662946437 ], [ 80.246613874230945, 15.894251268881021 ], [ 80.246654046047468, 15.89451322610455 ], [ 80.246698005808355, 15.89479989040268 ], [ 80.246316227412024, 15.895084813613323 ], [ 80.245527660473215, 15.895338803742845 ], [ 80.244705786243117, 15.895603517388452 ], [ 80.244097836446031, 15.895815836531654 ], [ 80.243675515712539, 15.895963325347225 ], [ 80.243675338546097, 15.895963387400457 ], [ 80.243431471185488, 15.89659752635481 ], [ 80.243102740199333, 15.898013830873651 ], [ 80.242598100921668, 15.901279939217886 ], [ 80.242309268358099, 15.902942228101381 ], [ 80.242086292248644, 15.904225482420145 ], [ 80.241795764463006, 15.906626489720793 ], [ 80.241550446495978, 15.908653817919401 ], [ 80.241144486229132, 15.911920785116195 ], [ 80.240970249777263, 15.913488632594351 ], [ 80.240762502787334, 15.915357987681034 ], [ 80.240747348311515, 15.917433558212167 ], [ 80.240738570029066, 15.918635708970839 ], [ 80.240686269056141, 15.919074720222227 ], [ 80.240600483625485, 15.919794790297374 ], [ 80.240600629315622, 15.919794735438757 ], [ 80.241338527551079, 15.919515459071249 ], [ 80.241661574821876, 15.919393192641792 ], [ 80.242447808019961, 15.919257039780632 ], [ 80.242702652505443, 15.91936237647252 ], [ 80.242859735288619, 15.919427304826286 ], [ 80.245971711525328, 15.923553892598136 ], [ 80.247931601362382, 15.926220727804377 ], [ 80.249930433642646, 15.929709653078078 ], [ 80.250158722047445, 15.930298699125728 ], [ 80.250158776006742, 15.930298838520628 ], [ 80.251614388093572, 15.929631677360078 ], [ 80.253424860968607, 15.928801850425089 ], [ 80.254829206302873, 15.927941015765327 ], [ 80.255982638987632, 15.92723716496323 ], [ 80.256241722877292, 15.927079063248243 ], [ 80.25887395127188, 15.92571920917419 ], [ 80.259915913888392, 15.925541677606361 ], [ 80.261278260883103, 15.925309549096482 ], [ 80.26529269869917, 15.923064352937615 ], [ 80.267452731758226, 15.921856236076508 ], [ 80.268122429906271, 15.921455151034422 ], [ 80.268727551335473, 15.921092739538324 ], [ 80.270193371626874, 15.920424336414044 ], [ 80.27034523114753, 15.920355089515795 ], [ 80.270837007422017, 15.920102924110722 ], [ 80.271413135607759, 15.919807505811775 ], [ 80.271510162564027, 15.919755123899904 ], [ 80.271986045119945, 15.919498207376421 ], [ 80.273296746747519, 15.918837233551528 ], [ 80.274817493132844, 15.918070318690297 ], [ 80.275435092655471, 15.917855547995202 ], [ 80.275966988585708, 15.917536229313555 ], [ 80.27626738013555, 15.917355890062311 ], [ 80.27693871415039, 15.916951316550069 ], [ 80.277100497689901, 15.91686616873875 ], [ 80.277343643794211, 15.91673819970822 ], [ 80.277748289252202, 15.916618928021137 ], [ 80.278411735313398, 15.916309867906136 ], [ 80.279052694726147, 15.916095152069659 ], [ 80.279547759821298, 15.915930526672526 ], [ 80.279770842050766, 15.915856343395603 ], [ 80.280152041283714, 15.91576187411124 ], [ 80.280747271969062, 15.915403996996929 ], [ 80.280988804689628, 15.915343512193374 ], [ 80.281693840798198, 15.915166953691994 ], [ 80.283961018186517, 15.914249852948387 ], [ 80.284128318167404, 15.914182177165799 ], [ 80.284433016570517, 15.914071664875507 ], [ 80.28505148663686, 15.913952402181678 ], [ 80.285264511747869, 15.913937211732957 ], [ 80.285715302319431, 15.91390506906373 ], [ 80.28876753209596, 15.913618442537143 ], [ 80.288767804590577, 15.913618417356133 ], [ 80.289340208683768, 15.913570284740899 ], [ 80.291256664863226, 15.913326650304725 ], [ 80.292338957576874, 15.913189052233008 ], [ 80.292818036323354, 15.913167870500899 ], [ 80.292880597661508, 15.913165103286929 ], [ 80.295665953620926, 15.912831856804814 ], [ 80.296113448177152, 15.912831423331568 ], [ 80.296428942941418, 15.912831117562064 ], [ 80.297637697421862, 15.91273718787096 ], [ 80.299809399184483, 15.912568413001907 ], [ 80.300501560598605, 15.912488479459796 ], [ 80.300641601228961, 15.912472306951429 ], [ 80.301213251690285, 15.91240783365464 ], [ 80.303808495465773, 15.912115113321875 ], [ 80.304182108917246, 15.912061085650635 ], [ 80.30447244065067, 15.912019102599572 ], [ 80.30660477549003, 15.911789808752701 ], [ 80.307570314618374, 15.911685975727266 ], [ 80.308382394332114, 15.911591172794431 ], [ 80.310637870641301, 15.911327847702069 ], [ 80.311162914636839, 15.911441547189725 ], [ 80.311515401214876, 15.911517876249036 ], [ 80.311797615667501, 15.911509219375034 ], [ 80.312278448991265, 15.911494467795478 ], [ 80.312932719269611, 15.91147224824573 ], [ 80.312972935152914, 15.911470875880241 ], [ 80.312973144694922, 15.911470875880241 ], [ 80.313735763494719, 15.911598969017234 ], [ 80.313789960238523, 15.912083842995003 ], [ 80.313857694477065, 15.912689816082207 ], [ 80.314120593290795, 15.91475803465562 ], [ 80.314222874985774, 15.915562667083464 ], [ 80.314426313323736, 15.917641646045183 ], [ 80.314451131014948, 15.917895263855371 ], [ 80.314775049728837, 15.918604044740903 ], [ 80.315023061165391, 15.919146726240456 ], [ 80.315184026321788, 15.919574625468613 ], [ 80.315252113993949, 15.91975562841958 ], [ 80.315252139174959, 15.919755861343958 ], [ 80.315533612586194, 15.921860535735163 ], [ 80.315708967794706, 15.922201051437412 ], [ 80.316212871426956, 15.923179553393709 ], [ 80.316370085511096, 15.92340217786824 ], [ 80.316509652198761, 15.923599811981774 ], [ 80.316750811700672, 15.923570355587515 ], [ 80.317311516513314, 15.923501864119771 ], [ 80.318086853525529, 15.925884474888676 ], [ 80.318446838650743, 15.926990685971418 ], [ 80.318606552850213, 15.927448677414588 ], [ 80.318797491511077, 15.927996202662655 ], [ 80.318942759001175, 15.928696464270445 ], [ 80.31897949990406, 15.929348054569118 ], [ 80.318987840216721, 15.929495961569444 ], [ 80.319013316211624, 15.929685429838742 ], [ 80.319063958834704, 15.930062057817736 ], [ 80.319316057689946, 15.930795389295838 ], [ 80.319445430562212, 15.931024647169806 ], [ 80.319528842682018, 15.931172459741276 ], [ 80.319750034536526, 15.931468708114437 ], [ 80.319895323610353, 15.93174666697513 ], [ 80.319931042883354, 15.93214406479683 ], [ 80.319941218712358, 15.932257281348484 ], [ 80.319941186336735, 15.932257346099675 ], [ 80.319070554462598, 15.933956642085434 ], [ 80.318085610662479, 15.934734208516943 ], [ 80.315168906919553, 15.93644275492926 ], [ 80.314849898504065, 15.936629619661289 ], [ 80.314849759109165, 15.936629700600236 ], [ 80.316199390589475, 15.939346860069577 ], [ 80.31758727653164, 15.942011407400571 ], [ 80.318335149147856, 15.943447184939657 ], [ 80.318445702806969, 15.94370915115644 ], [ 80.318792538045273, 15.94453099660825 ], [ 80.319417211635084, 15.947013877288668 ], [ 80.319386773181122, 15.947241626100208 ], [ 80.319386823543141, 15.947241662073111 ], [ 80.320192826537777, 15.94782785187391 ], [ 80.32053903944518, 15.948079644060385 ], [ 80.32153068229519, 15.948688274644212 ], [ 80.321715320305827, 15.948648669400598 ], [ 80.322621681345595, 15.948454252162037 ], [ 80.323774462021845, 15.948064919460535 ], [ 80.324926200383914, 15.94762921591564 ] ] ] ] } }
]
}
